GPS BIIR-2  (PRN 13)    
1 24876U 97035A   21304.01550816  .00000073  00000-0  00000-0 0  9997
2 24876  55.4817 164.6250 0054477  54.4804 306.1206  2.00562722178050
GPS BIIR-4  (PRN 20)    
1 26360U 00025A   21304.46067750  .00000032  00000-0  00000-0 0  9994
2 26360  53.8780  88.3425 0054884 175.2360 233.8921  2.00562578157380
GPS BIIR-8  (PRN 16)    
1 27663U 03005A   21304.06762146  .00000002  00000-0  00000-0 0  9996
2 27663  55.6764 282.1645 0122194  38.1655  63.8223  2.00551170137415
GPS BIIR-9  (PRN 21)    
1 27704U 03010A   21300.66693441 -.00000078  00000-0  00000-0 0  9995
2 27704  54.9255  32.7472 0243949 298.5520  86.5592  2.00569431136149
GPS BIIR-10 (PRN 22)    
1 28129U 03058A   21304.20612258  .00000038  00000-0  00000-0 0  9995
2 28129  53.6889  90.9895 0068945 308.2722  51.1158  2.00560607130897
GPS BIIR-11 (PRN 19)    
1 28190U 04009A   21303.28244399 -.00000048  00000-0  00000-0 0  9996
2 28190  56.1262 343.1155 0087818 113.3330 303.8833  2.00565520129030
GPS BIIR-13 (PRN 02)    
1 28474U 04045A   21304.31814624 -.00000073  00000-0  00000-0 0  9998
2 28474  55.2588  32.6529 0206838 274.9259  79.9199  2.00550682124539
GPS BIIRM-1 (PRN 17)    
1 28874U 05038A   21304.17337377 -.00000042  00000-0  00000-0 0  9990
2 28874  56.2022 340.5027 0139400 271.6035  92.1832  2.00561977117944
GPS BIIRM-2 (PRN 31)    
1 29486U 06042A   21304.53621549 -.00000001  00000-0  00000-0 0  9998
2 29486  54.7464 218.3838 0102515  17.2353 163.7432  2.00567593110509
GPS BIIRM-3 (PRN 12)    
1 29601U 06052A   21304.23494052  .00000001  00000-0  00000-0 0  9991
2 29601  55.6763 281.0878 0080824  69.8633 291.0029  2.00565362109511
GPS BIIRM-4 (PRN 15)    
1 32260U 07047A   21303.54079227  .00000080  00000-0  00000-0 0  9994
2 32260  53.2571 150.0723 0136342  59.4832 301.9427  2.00560524102908
GPS BIIRM-5 (PRN 29)    
1 32384U 07062A   21303.85579310 -.00000043  00000-0  00000-0 0  9990
2 32384  56.3140 341.2474 0017444 141.6183 216.8754  2.00577282101604
GPS BIIRM-6 (PRN 07)    
1 32711U 08012A   21303.95796492 -.00000003  00000-0  00000-0 0  9999
2 32711  54.5017 217.3943 0154726 228.6634 130.0304  2.00556910 99853
GPS BIIRM-8 (PRN 05)    
1 35752U 09043A   21304.51079174  .00000049  00000-0  00000-0 0  9995
2 35752  54.9029  94.7597 0058412  56.8407 357.4365  2.00571019 89470
GPS BIIF-1  (PRN 25)    
1 36585U 10022A   21304.51704309 -.00000003  00000-0  00000-0 0  9995
2 36585  54.9538 276.7549 0097695  54.3356 124.9064  2.00553348 83709
GPS BIIF-2  (PRN 01)    
1 37753U 11036A   21302.66127804 -.00000068  00000-0  00000-0 0  9993
2 37753  56.4921  37.7044 0108986  50.2030 311.3029  2.00564000 75357
GPS BIIF-3  (PRN 24)    
1 38833U 12053A   21303.63944448 -.00000002  00000-0  00000-0 0  9990
2 38833  53.5532 212.7716 0117170  43.4689 317.4898  2.00559182 65538
GPS BIIF-4  (PRN 27)    
1 39166U 13023A   21303.00345281 -.00000042  00000-0  00000-0 0  9993
2 39166  55.8400 337.0111 0094727  34.8423 325.8346  2.00567223 61968
GPS BIIF-5  (PRN 30)    
1 39533U 14008A   21302.00522497 -.00000007  00000-0  00000-0 0  9991
2 39533  53.6532 218.3212 0054323 205.2248 154.5441  2.00568444 55746
GPS BIIF-6  (PRN 06)    
1 39741U 14026A   21304.27677550 -.00000068  00000-0  00000-0 0  9991
2 39741  56.4591  37.1682 0025274 297.6626  62.1032  2.00572098 54647
GPS BIIF-7  (PRN 09)    
1 40105U 14045A   21303.87042684  .00000081  00000-0  00000-0 0  9991
2 40105  54.6454 155.9718 0020947 105.8972 254.4240  2.00562245 52172
GPS BIIF-8  (PRN 03)    
1 40294U 14068A   21299.25277034  .00000027  00000-0  00000+0 0  9999
2 40294  55.6446  97.2001 0036955  55.3420 305.0124  2.00555151 51192
GPS BIIF-9  (PRN 26)    
1 40534U 15013A   21303.87499952 -.00000003  00000-0  00000-0 0  9992
2 40534  53.8585 274.2034 0062878  15.3509 344.8315  2.00566417 47929
GPS BIIF-10 (PRN 08)    
1 40730U 15033A   21304.03588037 -.00000038  00000-0  00000-0 0  9992
2 40730  55.3438 335.9076 0066736   0.9591 359.1142  2.00563949 46091
GPS BIIF-11 (PRN 10)    
1 41019U 15062A   21303.08930717  .00000055  00000-0  00000-0 0  9993
2 41019  55.6389  96.8864 0072507 213.6671 145.8849  2.00563273 43915
GPS BIIF-12 (PRN 32)    
1 41328U 16007A   21303.68078926  .00000079  00000-0  00000-0 0  9993
2 41328  54.8689 156.5936 0053093 224.9699 134.6880  2.00556282 41933
GPS BIII-1  (PRN 04)    
1 43873U 18109A   21304.47781738  .00000085  00000-0  00000-0 0  9992
2 43873  55.0497 158.9328 0014999 189.8194 278.7873  2.00562396 21182
GPS BIII-2  (PRN 18)    
1 44506U 19056A   21304.51246184 -.00000068  00000-0  00000-0 0  9996
2 44506  55.5626  38.1714 0020359 179.9292 215.2669  2.00567496 16188
GPS BIII-3  (PRN 23)    
1 45854U 20041A   21304.52365017  .00000052  00000-0  00000-0 0  9999
2 45854  55.3547  95.4376 0017600 164.9865 180.2016  2.00562588 10144
GPS BIII-4  (PRN 14)    
1 46826U 20078A   21303.34251392  .00000002  00000-0  00000-0 0  9993
2 46826  54.7281 279.4280 0011846 190.2419 351.8405  2.00566926  7596
